IRIDIUM 921 [-]         
1 24873U 97034E   24019.46638027  .00026204  00000+0  89047-3 0  9993
2 24873  86.3862   1.6521 0008357  95.8496 264.3705 15.30310689452507
IRIDIUM 26 [-]          
1 24903U 97043A   24018.91440676  .00000928  00000+0  31203-3 0  9993
2 24903  86.3984 326.8250 0002212  81.3399 278.8048 14.36167256382768
IRIDIUM 22 [-]          
1 24907U 97043E   24018.92402559  .00000874  00000+0  29982-3 0  9997
2 24907  86.3987 329.9378 0002217  86.9850 273.1600 14.35066630382853
DUMMY MASS 1 [-]        
1 24925U 97048A   24019.51020185  .00000873  00000+0  96718-4 0  9990
2 24925  86.3346  13.1197 0007638 151.7866 208.3773 14.86006539428910
DUMMY MASS 2 [-]        
1 24926U 97048B   24018.91642180  .00000835  00000+0  92969-4 0  9991
2 24926  86.3343  14.9101 0007859 165.2001 194.9455 14.85765637428375
IRIDIUM 29 [-]          
1 24944U 97051A   24018.90467484  .00000853  00000+0  28997-3 0  9995
2 24944  86.3970 359.8852 0002360  93.1950 266.9517 14.35524401379325
IRIDIUM 33 [-]          
1 24946U 97051C   24019.42130080  .00000685  00000+0  23754-3 0  9993
2 24946  86.3886 358.9334 0006725 332.6831  27.4010 14.34230900378959
IRIDIUM 28 [-]          
1 24948U 97051E   24019.00779882  .00000882  00000+0  29442-3 0  9997
2 24948  86.3978 357.6546 0002085  77.7219 282.4211 14.36464456379938
